NORAD_CAT_ID,OBJECT_NAME,OBJECT_TYPE,EPOCH,MEAN_MOTION,ECCENTRICITY,INCLINATION,RA_OF_ASC_NODE,ARG_OF_PERICENTER,MEAN_ANOMALY,BSTAR,MEAN_MOTION_DOT,MEAN_MOTION_DDOT,TLE_LINE0,TLE_LINE1,TLE_LINE2,SEMIMAJOR_AXIS,PERIOD,APOGEE,PERIGEE,DECAYED
55748.0,STARLINK-5580,PAYLOAD,2024-06-12 05:33:19,14.98338937,0.0002959,70.0,46.7139,270.3486,89.7334,0.00017955,2.05e-05,0.0,0 STARLINK-5580,1 55748U 23028H   24164.23148082  .00002050  00000-0  17955-3 0  9996,2 55748  70.0000  46.7139 0002959 270.3486  89.7334 14.98338937 70852,6950.165,96.106,574.087,569.974,0.0
55748.0,STARLINK-5580,PAYLOAD,2024-06-12 19:58:33,14.98327966,0.0003046,69.9997,45.1989,271.4406,88.6404,-1.2279e-06,-1.08e-06,0.0,0 STARLINK-5580,1 55748U 23028H   24164.83233173 -.00000108  00000-0 -12279-5 0  9998,2 55748  69.9997  45.1989 0003046 271.4406  88.6404 14.98327966 70948,6950.199,96.107,574.181,569.947,0.0
55748.0,STARLINK-5580,PAYLOAD,2024-06-12 21:34:41,14.98329481,0.0003044,69.9996,45.0306,271.2941,88.7869,1.862e-05,1.29e-06,0.0,0 STARLINK-5580,1 55748U 23028H   24164.89909051  .00000129  00000-0  18620-4 0  9995,2 55748  69.9996  45.0306 0003044 271.2941  88.7869 14.98329481 70950,6950.194,96.107,574.175,569.944,0.0
55748.0,STARLINK-5580,PAYLOAD,2024-06-13 03:59:13,14.98335168,0.000298,69.9996,44.3574,271.7233,88.3585,5.6137e-05,5.77e-06,0.0,0 STARLINK-5580,1 55748U 23028H   24165.16612628  .00000577  00000-0  56137-4 0  9999,2 55748  69.9996  44.3574 0002980 271.7233  88.3585 14.98335168 70990,6950.177,96.107,574.113,569.971,0.0
55748.0,STARLINK-5580,PAYLOAD,2024-06-13 15:12:09,14.98331065,0.0002947,69.9994,43.1791,270.7984,89.2838,7.5998e-05,8.14e-06,0.0,0 STARLINK-5580,1 55748U 23028H   24165.63344863  .00000814  00000-0  75998-4 0  9994,2 55748  69.9994  43.1791 0002947 270.7984  89.2838 14.98331065 71063,6950.19,96.107,574.103,570.006,0.0
55748.0,STARLINK-5580,PAYLOAD,2024-06-13 21:36:41,14.983353,0.0003023,69.9995,42.5057,269.4256,90.6557,0.00018376,2.101e-05,0.0,0 STARLINK-5580,1 55748U 23028H   24165.90048470  .00002101  00000-0  18376-3 0  9996,2 55748  69.9995  42.5057 0003023 269.4256  90.6557 14.98335300 71100,6950.177,96.107,574.143,569.94,0.0
55748.0,STARLINK-5580,PAYLOAD,2024-06-14 13:38:02,14.9833419,0.0003041,70.0007,40.8223,270.2261,89.855,3.8185e-05,3.63e-06,0.0,0 STARLINK-5580,1 55748U 23028H   24166.56808462  .00000363  00000-0  38185-4 0  9993,2 55748  70.0007  40.8223 0003041 270.2261  89.8550 14.98334190 71209,6950.18,96.107,574.158,569.931,0.0
55748.0,STARLINK-5580,PAYLOAD,2024-06-14 21:38:42,14.98332674,0.0003141,70.0008,39.9807,270.8657,89.2143,0.00040364,4.727e-05,0.0,0 STARLINK-5580,1 55748U 23028H   24166.90188629  .00004727  00000-0  40364-3 0  9996,2 55748  70.0008  39.9807 0003141 270.8657  89.2143 14.98332674 71255,6950.185,96.107,574.233,569.867,0.0
55748.0,STARLINK-5580,PAYLOAD,2024-06-15 13:40:03,14.98332208,0.0003143,70.0012,38.2972,269.8752,90.2047,5.0814e-05,5.13e-06,0.0,0 STARLINK-5580,1 55748U 23028H   24167.56948399  .00000513  00000-0  50814-4 0  9998,2 55748  70.0012  38.2972 0003143 269.8752  90.2047 14.98332208 71350,6950.186,96.107,574.236,569.867,0.0
55748.0,STARLINK-5580,PAYLOAD,2024-06-15 21:40:43,14.98337003,0.0003179,70.0013,37.4557,271.0055,89.074,0.00020314,2.332e-05,0.0,0 STARLINK-5580,1 55748U 23028H   24167.90328229  .00002332  00000-0  20314-3 0  9992,2 55748  70.0013  37.4557 0003179 271.0055  89.0740 14.98337003 71401,6950.171,96.107,574.246,569.827,0.0
55748.0,STARLINK-5580,PAYLOAD,2024-06-16 13:42:04,14.98330392,0.0003146,70.001,35.7727,271.579,88.5009,-5.291e-05,-7.24e-06,0.0,0 STARLINK-5580,1 55748U 23028H   24168.57088461 -.00000724  00000-0 -52910-4 0  9990,2 55748  70.0010  35.7727 0003146 271.5790  88.5009 14.98330392 71500,6950.192,96.107,574.243,569.87,0.0
55748.0,STARLINK-5580,PAYLOAD,2024-06-16 21:42:44,14.98333358,0.0003202,70.001,34.9309,270.1856,89.8936,0.0001498,1.695e-05,0.0,0 STARLINK-5580,1 55748U 23028H   24168.90468377  .00001695  00000-0  14980-3 0  9995,2 55748  70.0010  34.9309 0003202 270.1856  89.8936 14.98333358 71551,6950.183,96.107,574.273,569.822,0.0
55748.0,STARLINK-5580,PAYLOAD,2024-06-17 21:44:45,14.98333546,0.0003176,70.001,32.4061,269.6531,90.4264,0.0001843,2.107e-05,0.0,0 STARLINK-5580,1 55748U 23028H   24169.90608328  .00002107  00000-0  18430-3 0  9991,2 55748  70.0010  32.4061 0003176 269.6531  90.4264 14.98333546 71700,6950.182,96.107,574.254,569.84,0.0
55748.0,STARLINK-5580,PAYLOAD,2024-06-18 12:09:58,14.98330568,0.0003159,70.0009,30.891,269.2318,90.848,1.3197e-05,6.4e-07,0.0,0 STARLINK-5580,1 55748U 23028H   24170.50692375  .00000064  00000-0  13197-4 0  9990,2 55748  70.0009  30.8910 0003159 269.2318  90.8480 14.98330568 71797,6950.191,96.107,574.252,569.861,0.0
55748.0,STARLINK-5580,PAYLOAD,2024-06-18 13:46:06,14.98332035,0.0003195,70.0009,30.7227,269.1143,90.965,-0.00011039,-1.41e-05,0.0,0 STARLINK-5580,1 55748U 23028H   24170.57368248 -.00001410  00000-0 -11039-3 0  9996,2 55748  70.0009  30.7227 0003195 269.1143  90.9650 14.98332035 71805,6950.187,96.107,574.272,569.831,0.0
55748.0,STARLINK-5580,PAYLOAD,2024-06-18 21:46:46,14.98330511,0.0003168,69.9993,29.8808,268.7291,91.3505,0.00012913,1.448e-05,0.0,0 STARLINK-5580,1 55748U 23028H   24170.90748477  .00001448  00000-0  12913-3 0  9990,2 55748  69.9993  29.8808 0003168 268.7291  91.3505 14.98330511 71853,6950.191,96.107,574.258,569.854,0.0
55748.0,STARLINK-5580,PAYLOAD,2024-06-19 12:11:59,14.98330885,0.0003142,69.9992,28.3658,269.3197,90.7602,2.2474e-05,1.75e-06,0.0,0 STARLINK-5580,1 55748U 23028H   24171.50832483  .00000175  00000-0  22474-4 0  9998,2 55748  69.9992  28.3658 0003142 269.3197  90.7602 14.98330885 71948,6950.19,96.107,574.239,569.871,0.0
55748.0,STARLINK-5580,PAYLOAD,2024-06-19 13:48:07,14.98330044,0.0003141,69.9992,28.1975,269.276,90.8039,3.2861e-05,2.99e-06,0.0,0 STARLINK-5580,1 55748U 23028H   24171.57508512  .00000299  00000-0  32861-4 0  9996,2 55748  69.9992  28.1975 0003141 269.2760  90.8039 14.98330044 71955,6950.193,96.107,574.241,569.875,0.0
55748.0,STARLINK-5580,PAYLOAD,2024-06-19 21:48:47,14.98332518,0.0003156,69.9993,27.3557,269.6456,90.4342,0.00010254,1.131e-05,0.0,0 STARLINK-5580,1 55748U 23028H   24171.90888192  .00001131  00000-0  10254-3 0  9995,2 55748  69.9993  27.3557 0003156 269.6456  90.4342 14.98332518 72003,6950.185,96.107,574.244,569.857,0.0
55748.0,STARLINK-5580,PAYLOAD,2024-06-20 07:25:35,14.9833331,0.0003151,69.9993,26.3456,269.601,90.4788,4.0298e-05,3.88e-06,0.0,0 STARLINK-5580,1 55748U 23028H   24172.30944200  .00000388  00000-0  40298-4 0  9998,2 55748  69.9993  26.3456 0003151 269.6010  90.4788 14.98333310 72062,6950.183,96.107,574.238,569.858,0.0
55748.0,STARLINK-5580,PAYLOAD,2024-06-20 21:50:48,14.98328122,0.0003152,69.9993,24.8308,269.8264,90.2534,7.8396e-05,8.42e-06,0.0,0 STARLINK-5580,1 55748U 23028H   24172.91028532  .00000842  00000-0  78396-4 0  9991,2 55748  69.9993  24.8308 0003152 269.8264  90.2534 14.98328122 72157,6950.199,96.107,574.254,569.873,0.0
55748.0,STARLINK-5580,PAYLOAD,2024-06-20 23:26:56,14.98329575,0.0003151,69.9993,24.6624,269.7775,90.3023,8.9632e-05,9.77e-06,0.0,0 STARLINK-5580,1 55748U 23028H   24172.97704415  .00000977  00000-0  89632-4 0  9992,2 55748  69.9993  24.6624 0003151 269.7775  90.3023 14.98329575 72169,6950.194,96.107,574.249,569.869,0.0
55748.0,STARLINK-5580,PAYLOAD,2024-06-21 01:03:04,14.98331328,0.0003153,69.9993,24.4941,269.4259,90.6539,8.5436e-05,9.27e-06,0.0,0 STARLINK-5580,1 55748U 23028H   24173.04380297  .00000927  00000-0  85436-4 0  9992,2 55748  69.9993  24.4941 0003153 269.4259  90.6539 14.98331328 72170,6950.189,96.107,574.245,569.862,0.0
55748.0,STARLINK-5580,PAYLOAD,2024-06-21 21:52:49,14.98333539,0.0003132,69.9993,22.3056,268.5393,91.5407,9.4094e-05,1.03e-05,0.0,0 STARLINK-5580,1 55748U 23028H   24173.91168117  .00001030  00000-0  94094-4 0  9999,2 55748  69.9993  22.3056 0003132 268.5393  91.5407 14.98333539 72305,6950.182,96.107,574.224,569.87,0.0
55748.0,STARLINK-5580,PAYLOAD,2024-06-21 23:28:57,14.98334839,0.0003128,69.9994,22.1373,268.4661,91.6139,0.00010234,1.128e-05,0.0,0 STARLINK-5580,1 55748U 23028H   24173.97843997  .00001128  00000-0  10234-3 0  9992,2 55748  69.9994  22.1373 0003128 268.4661  91.6139 14.98334839 72316,6950.178,96.107,574.217,569.869,0.0
55748.0,STARLINK-5580,PAYLOAD,2024-06-22 13:54:10,14.98330627,0.0002958,69.9998,20.6224,266.3015,93.7806,9.8996e-05,1.088e-05,0.0,0 STARLINK-5580,1 55748U 23028H   24174.57928241  .00001088  00000-0  98996-4 0  9992,2 55748  69.9998  20.6224 0002958 266.3015  93.7806 14.98330627 72403,6950.191,96.107,574.112,570.0,0.0
55748.0,STARLINK-5580,PAYLOAD,2024-06-22 20:18:42,14.98330873,0.0002973,69.9998,19.949,266.2368,93.8451,7.9788e-05,8.59e-06,0.0,0 STARLINK-5580,1 55748U 23028H   24174.84632258  .00000859  00000-0  79788-4 0  9995,2 55748  69.9998  19.9490 0002973 266.2368  93.8451 14.98330873 72440,6950.19,96.107,574.121,569.989,0.0
55748.0,STARLINK-5580,PAYLOAD,2024-06-22 21:54:50,14.98331102,0.0002966,69.9998,19.7806,265.9267,94.1553,8.2668e-05,8.94e-06,0.0,0 STARLINK-5580,1 55748U 23028H   24174.91308235  .00000894  00000-0  82668-4 0  9998,2 55748  69.9998  19.7806 0002966 265.9267  94.1553 14.98331102 72459,6950.189,96.107,574.116,569.993,0.0
55748.0,STARLINK-5580,PAYLOAD,2024-06-23 13:56:11,14.9832994,0.0002928,70.0,18.0978,267.9983,92.0841,2.8666e-05,2.49e-06,0.0,0 STARLINK-5580,1 55748U 23028H   24175.58068427  .00000249  00000-0  28666-4 0  9990,2 55748  70.0000  18.0978 0002928 267.9983  92.0841 14.98329940 72558,6950.193,96.107,574.093,570.023,0.0
55748.0,STARLINK-5580,PAYLOAD,2024-06-23 20:20:43,14.98328484,0.0002962,69.9999,17.4246,268.0541,92.0279,4.4903e-06,-3.9e-07,0.0,0 STARLINK-5580,1 55748U 23028H   24175.84772575 -.00000039  00000-0  44903-5 0  9996,2 55748  69.9999  17.4246 0002962 268.0541  92.0279 14.98328484 72594,6950.198,96.107,574.121,570.004,0.0
